{
    "links": {
        "self": "http://www.neowsapp.com/rest/v1/neo/3842914?api_key=iIulBulltgU6a56xZRHN4H3l9WmuAYTsLGpBGhQ2"
    },
    "id": "3842914",
    "neo_reference_id": "3842914",
    "name": "(2019 MJ)",
    "designation": "2019 MJ",
    "nasa_jpl_url": "http://ssd.jpl.nasa.gov/sbdb.cgi?sstr=3842914",
    "absolute_magnitude_h": 24.0,
    "estimated_diameter": {
        "kilometers": {
            "estimated_diameter_min": 0.0421264611,
            "estimated_diameter_max": 0.0941976306
        },
        "meters": {
            "estimated_diameter_min": 42.1264610556,
            "estimated_diameter_max": 94.1976305719
        },
        "miles": {
            "estimated_diameter_min": 0.0261761612,
            "estimated_diameter_max": 0.0585316759
        },
        "feet": {
            "estimated_diameter_min": 138.2101784897,
            "estimated_diameter_max": 309.0473542854
        }
    },
    "is_potentially_hazardous_asteroid": false,
    "close_approach_data": [
        {
            "close_approach_date": "2019-06-24",
            "close_approach_date_full": "2019-Jun-24 23:12",
            "epoch_date_close_approach": 1561417920000,
            "relative_velocity": {
                "kilometers_per_second": "6.2684645322",
                "kilometers_per_hour": "22566.4723158897",
                "miles_per_hour": "14021.9283120593"
            },
            "miss_distance": {
                "astronomical": "0.0834508855",
                "lunar": "32.4623944595",
                "kilometers": "12484074.720413885",
                "miles": "7757244.323066213"
            },
            "orbiting_body": "Earth"
        }
    ],
    "orbital_data": {
        "orbit_id": "8",
        "orbit_determination_date": "2019-12-03 04:59:08",
        "first_observation_date": "2019-06-22",
        "last_observation_date": "2019-07-05",
        "data_arc_in_days": 13,
        "observations_used": 43,
        "orbit_uncertainty": "8",
        "minimum_orbit_intersection": ".0638921",
        "jupiter_tisserand_invariant": "3.734",
        "epoch_osculation": "2458658.5",
        "eccentricity": ".4529764001406048",
        "semi_major_axis": "1.972862903225517",
        "inclination": "3.277813338857891",
        "ascending_node_longitude": "263.0016058343312",
        "orbital_period": "1012.147453525658",
        "perihelion_distance": "1.07920256735148",
        "perihelion_argument": "357.0096673045719",
        "aphelion_distance": "2.866523239099554",
        "perihelion_time": "2458649.716633850977",
        "mean_anomaly": "3.124062410703011",
        "mean_motion": ".355679401006243",
        "equinox": "J2000",
        "orbit_class": {
            "orbit_class_type": "AMO",
            "orbit_class_description": "Near-Earth asteroid orbits similar to that of 1221 Amor",
            "orbit_class_range": "1.017 AU < q (perihelion) < 1.3 AU"
        }
    },
    "is_sentry_object": false
}